*******************************************************************************
Ephemeris / WWW_USER Tue Mar 27 20:43:50 2018 Pasadena, USA      / Horizons    
*******************************************************************************
Target body name: Jupiter Barycenter (5)          {source: DE431mx}
Center body name: Solar System Barycenter (0)     {source: DE431mx}
Center-site name: BODY CENTER
*******************************************************************************
Start time      : A.D. 2000-Jan-01 00:00:00.0000 TDB
Stop  time      : A.D. 2005-Jan-01 00:00:00.0000 TDB
Step-size       : 7200 minutes
*******************************************************************************
Center geodetic : 0.00000000,0.00000000,0.0000000 {E-lon(deg),Lat(deg),Alt(km)}
Center cylindric: 0.00000000,0.00000000,0.0000000 {E-lon(deg),Dxy(km),Dz(km)}
Center radii    : (undefined)                                                  
Output units    : AU-D                                                         
Output type     : GEOMETRIC cartesian states
Output format   : 2 (position and velocity)
Reference frame : ICRF/J2000.0                                                 
Coordinate systm: Ecliptic and Mean Equinox of Reference Epoch                 
*******************************************************************************
JDTDB
   X     Y     Z
   VX    VY    VZ
*******************************************************************************
$$SOE
2453014.500000000 = A.D. 2004-Jan-10 00:00:00.0000 TDB 
  -5.067489572308574E+00  1.868222520183102E+00  1.056441368011206E-01
  -2.703814864398508E-03 -6.723887097307203E-03  8.838561685751289E-05
2453019.500000000 = A.D. 2004-Jan-15 00:00:00.0000 TDB 
  -5.080889842623519E+00  1.834559569803788E+00  1.060835868387533E-01
  -2.656276974352420E-03 -6.741238787888950E-03  8.739380861193598E-05
2453024.500000000 = A.D. 2004-Jan-20 00:00:00.0000 TDB 
  -5.094052180915695E+00  1.800810675247645E+00  1.065180690290775E-01
  -2.608642402391864E-03 -6.758264712779892E-03  8.639848546894649E-05
2453029.500000000 = A.D. 2004-Jan-25 00:00:00.0000 TDB 
  -5.106976108980221E+00  1.766977466162800E+00  1.069475659106299E-01
  -2.560913230028254E-03 -6.774964545951396E-03  8.539969263837466E-05
2453034.500000000 = A.D. 2004-Jan-30 00:00:00.0000 TDB 
  -5.119661159014299E+00  1.733061573799970E+00  1.073720602480004E-01
  -2.513091536584452E-03 -6.791337972384986E-03  8.439747533142082E-05
2453039.500000000 = A.D. 2004-Feb-04 00:00:00.0000 TDB 
  -5.132106873606270E+00  1.699064630957571E+00  1.077915350318359E-01
  -2.465179399190793E-03 -6.807384688008405E-03  8.339187875950383E-05
2453044.500000000 = A.D. 2004-Feb-09 00:00:00.0000 TDB 
  -5.144312805724640E+00  1.664988271927165E+00  1.082059734788381E-01
  -2.417178892783014E-03 -6.823104399624206E-03  8.238294813309409E-05
2453049.500000000 = A.D. 2004-Feb-14 00:00:00.0000 TDB 
  -5.156278518707083E+00  1.630834132439262E+00  1.086153590317572E-01
  -2.369092090090761E-03 -6.838496824838015E-03  8.137072866086251E-05
2453054.500000000 = A.D. 2004-Feb-19 00:00:00.0000 TDB 
  -5.168003586249391E+00  1.596603849609488E+00  1.090196753593805E-01
  -2.320921061630137E-03 -6.853561691985615E-03  8.035526554882899E-05
2453059.500000000 = A.D. 2004-Feb-24 00:00:00.0000 TDB 
  -5.179487592394376E+00  1.562299061885112E+00  1.094189063565166E-01
  -2.272667875689827E-03 -6.868298740062224E-03  7.933660399928417E-05
2453064.500000000 = A.D. 2004-Feb-29 00:00:00.0000 TDB 
  -5.190730131520697E+00  1.527921408991926E+00  1.098130361439736E-01
  -2.224334598318941E-03 -6.882707718652873E-03  7.831478920967114E-05
2453069.500000000 = A.D. 2004-Mar-05 00:00:00.0000 TDB 
  -5.201730808331632E+00  1.493472531881464E+00  1.102020490685326E-01
  -2.175923293313079E-03 -6.896788387863529E-03  7.728986637141284E-05
2453074.500000000 = A.D. 2004-Mar-10 00:00:00.0000 TDB 
  -5.212489237843775E+00  1.458954072678571E+00  1.105859297029141E-01
  -2.127436022199235E-03 -6.910540518252579E-03  7.626188066865940E-05
2453079.500000000 = A.D. 2004-Mar-15 00:00:00.0000 TDB 
  -5.223005045375621E+00  1.424367674629303E+00  1.109646628457393E-01
  -2.078874844207865E-03 -6.923963890766682E-03  7.523087727752479E-05
2453084.500000000 = A.D. 2004-Mar-20 00:00:00.0000 TDB 
  -5.233277866536052E+00  1.389714982049147E+00  1.113382335214865E-01
  -2.030241816256273E-03 -6.937058296677823E-03  7.419690136435459E-05
2453089.500000000 = A.D. 2004-Mar-25 00:00:00.0000 TDB 
  -5.243307347212657E+00  1.354997640271503E+00  1.117066269804389E-01
  -1.981538992911794E-03 -6.949823537542549E-03  7.315999808425272E-05
2453094.500000000 = A.D. 2004-Mar-30 00:00:00.0000 TDB 
  -5.253093143560053E+00  1.320217295596396E+00  1.120698286986174E-01
  -1.932768426421054E-03 -6.962259425140460E-03  7.212021257651144E-05
2453099.500000000 = A.D. 2004-Apr-04 00:00:00.0000 TDB 
  -5.262634921988317E+00  1.285375595239569E+00  1.124278243776936E-01
  -1.883932166721750E-03 -6.974365781390335E-03  7.107758996193981E-05
2453104.500000000 = A.D. 2004-Apr-09 00:00:00.0000 TDB 
  -5.271932359151398E+00  1.250474187282032E+00  1.127805999448970E-01
  -1.835032261419254E-03 -6.986142438247448E-03  7.003217534300942E-05
2453109.500000000 = A.D. 2004-Apr-14 00:00:00.0000 TDB 
  -5.280985141935298E+00  1.215514720620113E+00  1.131281415529281E-01
  -1.786070755707660E-03 -6.997589237623141E-03  6.898401380623037E-05
2453114.500000000 = A.D. 2004-Apr-19 00:00:00.0000 TDB 
  -5.289792967445758E+00  1.180498844915767E+00  1.134704355798841E-01
  -1.737049692279940E-03 -7.008706031348533E-03  6.793315042388567E-05
2453119.500000000 = A.D. 2004-Apr-24 00:00:00.0000 TDB 
  -5.298355542995595E+00  1.145428210547045E+00  1.138074686291894E-01
  -1.687971111263908E-03 -7.019492681152988E-03  6.687963025445337E-05
2453124.500000000 = A.D. 2004-Apr-29 00:00:00.0000 TDB 
  -5.306672586091765E+00  1.110304468558630E+00  1.141392275295247E-01
  -1.638837050181382E-03 -7.029949058651209E-03  6.582349834210750E-05
2453129.500000000 = A.D. 2004-May-04 00:00:00.0000 TDB 
  -5.314743824422272E+00  1.075129270612447E+00  1.144656993347556E-01
  -1.589649543929091E-03 -7.040075045329218E-03  6.476479971641022E-05
2453134.500000000 = A.D. 2004-May-09 00:00:00.0000 TDB 
  -5.322568995843033E+00  1.039904268938352E+00  1.147868713238585E-01
  -1.540410624776558E-03 -7.049870532526323E-03  6.370357939195794E-05
2453139.500000000 = A.D. 2004-May-14 00:00:00.0000 TDB 
  -5.330147848364775E+00  1.004631116284914E+00  1.151027310008437E-01
  -1.491122322380108E-03 -7.059335421412143E-03  6.263988236808679E-05
2453144.500000000 = A.D. 2004-May-19 00:00:00.0000 TDB 
  -5.337480140140015E+00  9.693114658703454E-01  1.154132660946811E-01
  -1.441786663806719E-03 -7.068469622954243E-03  6.157375362877477E-05
2453149.500000000 = A.D. 2004-May-24 00:00:00.0000 TDB 
  -5.344565639450208E+00  9.339469713336097E-01  1.157184645592206E-01
  -1.392405673568170E-03 -7.077273057877112E-03  6.050523814240413E-05
2453154.500000000 = A.D. 2004-May-29 00:00:00.0000 TDB 
  -5.351404124693044E+00  8.985392866857557E-01  1.160183145731153E-01
  -1.342981373654561E-03 -7.085745656612669E-03  5.943438086166756E-05
2453159.500000000 = A.D. 2004-Jun-03 00:00:00.0000 TDB 
  -5.357995384369935E+00  8.630900662615284E-01  1.163128045397426E-01
  -1.293515783567917E-03 -7.093887359240540E-03  5.836122672370308E-05
2453164.500000000 = A.D. 2004-Jun-08 00:00:00.0000 TDB 
  -5.364339217073630E+00  8.276009646712840E-01  1.166019230871276E-01
  -1.244010920344143E-03 -7.101698115425707E-03  5.728582065047670E-05
2453169.500000000 = A.D. 2004-Jun-13 00:00:00.0000 TDB 
  -5.370435431475916E+00  7.920736367532244E-01  1.168856590678685E-01
  -1.194468798561967E-03 -7.109177884354213E-03  5.620820754943291E-05
2453174.500000000 = A.D. 2004-Jun-18 00:00:00.0000 TDB 
  -5.376283846315321E+00  7.565097375259288E-01  1.171640015590646E-01
  -1.144891430340198E-03 -7.116326634683528E-03  5.512843231349820E-05
2453179.500000000 = A.D. 2004-Jun-23 00:00:00.0000 TDB 
  -5.381884290384826E+00  7.209109221411020E-01  1.174369398622422E-01
  -1.095280825342953E-03 -7.123144344498726E-03  5.404653982012702E-05
2453184.500000000 = A.D. 2004-Jun-28 00:00:00.0000 TDB 
  -5.387236602519689E+00  6.852788458365193E-01  1.177044635032687E-01
  -1.045638990829893E-03 -7.129631001277719E-03  5.296257492775557E-05
2453189.500000000 = A.D. 2004-Jul-03 00:00:00.0000 TDB 
  -5.392340631585564E+00  6.496151638892471E-01  1.179665622322540E-01
  -9.959679317026150E-04 -7.135786601810942E-03  5.187658247528735E-05
2453194.500000000 = A.D. 2004-Jul-08 00:00:00.0000 TDB 
  -5.397196236466741E+00  6.139215315692952E-01  1.182232260234569E-01
  -9.462696505116152E-04 -7.141611152118198E-03  5.078860728354022E-05
2453199.500000000 = A.D. 2004-Jul-13 00:00:00.0000 TDB 
  -5.401803286054327E+00  5.781996040936447E-01  1.184744450751994E-01
  -8.965461474273849E-04 -7.147104667381264E-03  4.969869415738188E-05
2453204.500000000 = A.D. 2004-Jul-18 00:00:00.0000 TDB 
  -5.406161659234237E+00  5.424510365805667E-01  1.187202098097918E-01
  -8.467994201973139E-04 -7.152267171897163E-03  4.860688788720565E-05
2453209.500000000 = A.D. 2004-Jul-23 00:00:00.0000 TDB 
  -5.410271244875053E+00  5.066774840041168E-01  1.189605108734570E-01
  -7.970314641374140E-04 -7.157098699048682E-03  4.751323324774813E-05
2453214.500000000 = A.D. 2004-Jul-28 00:00:00.0000 TDB 
  -5.414131941815815E+00  4.708806011488014E-01  1.191953391362525E-01
  -7.472442721184182E-04 -7.161599291267614E-03  4.641777499768904E-05
2453219.500000000 = A.D. 2004-Aug-02 00:00:00.0000 TDB 
  -5.417743658853823E+00  4.350620425644195E-01  1.194246856919863E-01
  -6.974398345702691E-04 -7.165768999998248E-03  4.532055787850733E-05
